BEIDOU-3 M25 (C47)      
1 61186U 24168B   26061.36433176 -.00000052  00000+0  00000+0 0  9997
2 61186  54.5675 305.9555 0004290 318.0533 240.8278  1.86230007  9799
BEIDOU-3 M27 (C49)      
1 61187U 24168C   26061.67695310 -.00000054  00000+0  00000+0 0  9994
2 61187  54.5628 305.9279 0002951  19.4772 163.9881  1.86230177  7274
