[{"OBJECT_NAME":"BEIDOU-3 M25 (C47)","OBJECT_ID":"2024-168B","EPOCH":"2026-03-02T08:44:38.264064","MEAN_MOTION":1.86230007,"ECCENTRICITY":0.00042907,"INCLINATION":54.5675,"RA_OF_ASC_NODE":305.9555,"ARG_OF_PERICENTER":318.0533,"MEAN_ANOMALY":240.8278,"EPHEMERIS_TYPE":0,"CLASSIFICATION_TYPE":"U","NORAD_CAT_ID":61186,"ELEMENT_SET_NO":999,"REV_AT_EPOCH":979,"BSTAR":0,"MEAN_MOTION_DOT":-5.2e-7,"MEAN_MOTION_DDOT":0},{"OBJECT_NAME":"BEIDOU-3 M27 (C49)","OBJECT_ID":"2024-168C","EPOCH":"2026-03-02T16:14:48.747840","MEAN_MOTION":1.86230177,"ECCENTRICITY":0.0002951,"INCLINATION":54.5628,"RA_OF_ASC_NODE":305.9279,"ARG_OF_PERICENTER":19.4772,"MEAN_ANOMALY":163.9881,"EPHEMERIS_TYPE":0,"CLASSIFICATION_TYPE":"U","NORAD_CAT_ID":61187,"ELEMENT_SET_NO":999,"REV_AT_EPOCH":727,"BSTAR":0,"MEAN_MOTION_DOT":-5.4e-7,"MEAN_MOTION_DDOT":0}]
